NORAD_CAT_ID,OBJECT_NAME,OBJECT_TYPE,EPOCH,MEAN_MOTION,ECCENTRICITY,INCLINATION,RA_OF_ASC_NODE,ARG_OF_PERICENTER,MEAN_ANOMALY,BSTAR,MEAN_MOTION_DOT,MEAN_MOTION_DDOT,TLE_LINE0,TLE_LINE1,TLE_LINE2,SEMIMAJOR_AXIS,PERIOD,APOGEE,PERIGEE,DECAYED
53562.0,STARLINK-4565,PAYLOAD,2024-04-05 08:32:39,15.08844387,0.000129,53.218,331.6531,86.4213,273.6927,0.00015354,2.157e-05,0.0,0 STARLINK-4565,1 53562U 22101AM  24096.35600904  .00002157  00000-0  15354-3 0  9991,2 53562  53.2180 331.6531 0001290  86.4213 273.6927 15.08844387 90261,6917.867,95.437,540.624,538.84,0.0
53562.0,STARLINK-4565,PAYLOAD,2024-04-05 21:15:44,15.08842127,0.0001356,53.2176,329.2745,87.7415,272.3733,0.00021088,3.07e-05,0.0,0 STARLINK-4565,1 53562U 22101AM  24096.88592866  .00003070  00000-0  21088-3 0  9992,2 53562  53.2176 329.2745 0001356  87.7415 272.3733 15.08842127 91001,6917.874,95.437,540.677,538.801,0.0
53562.0,STARLINK-4565,PAYLOAD,2024-04-06 08:23:26,15.08839626,0.000151,53.2183,327.1928,88.4032,271.7133,0.00015193,2.131e-05,0.0,0 STARLINK-4565,1 53562U 22101AM  24097.34961366  .00002131  00000-0  15193-3 0  9996,2 53562  53.2183 327.1928 0001510  88.4032 271.7133 15.08839626 90415,6917.882,95.438,540.791,538.702,0.0
53562.0,STARLINK-4565,PAYLOAD,2024-04-06 22:41:54,15.08843566,0.0001451,53.2182,324.5162,89.0722,271.0436,-2.5231e-06,-3.28e-06,0.0,0 STARLINK-4565,1 53562U 22101AM  24097.94577349 -.00000328  00000-0 -25231-5 0  9990,2 53562  53.2182 324.5162 0001451  89.0722 271.0436 15.08843566 91162,6917.869,95.437,540.738,538.731,0.0
53562.0,STARLINK-4565,PAYLOAD,2024-04-07 08:14:13,15.08842377,0.0001413,53.2174,322.7311,86.859,273.2564,-2.5853e-05,-6.99e-06,0.0,0 STARLINK-4565,1 53562U 22101AM  24098.34321387 -.00000699  00000-0 -25853-4 0  9994,2 53562  53.2174 322.7311 0001413  86.8590 273.2564 15.08842377 91227,6917.873,95.437,540.716,538.761,0.0
53562.0,STARLINK-4565,PAYLOAD,2024-04-07 20:57:18,15.08844049,0.0001479,53.2177,320.3522,86.5573,273.5589,2.2551e-07,-2.84e-06,0.0,0 STARLINK-4565,1 53562U 22101AM  24098.87313112 -.00000284  00000-0  22551-6 0  9992,2 53562  53.2177 320.3522 0001479  86.5573 273.5589 15.08844049 90641,6917.868,95.437,540.756,538.71,0.0
53562.0,STARLINK-4565,PAYLOAD,2024-04-07 22:32:41,15.08846664,0.0001336,53.2172,320.0549,91.1056,269.0089,-4.4692e-05,-9.99e-06,0.0,0 STARLINK-4565,1 53562U 22101AM  24098.93937014 -.00000999  00000-0 -44692-4 0  9994,2 53562  53.2172 320.0549 0001336  91.1056 269.0089 15.08846664 91317,6917.86,95.437,540.649,538.801,0.0
53562.0,STARLINK-4565,PAYLOAD,2024-04-08 08:04:59,15.08851577,0.0001374,53.2172,318.2712,103.4004,256.7141,-2.5074e-05,-6.87e-06,0.0,0 STARLINK-4565,1 53562U 22101AM  24099.33680451 -.00000687  00000-0 -25074-4 0  9996,2 53562  53.2172 318.2712 0001374 103.4004 256.7141 15.08851577 90714,6917.845,95.437,540.661,538.759,0.0
53562.0,STARLINK-4565,PAYLOAD,2024-04-08 14:26:32,15.08843184,0.0001342,53.2172,317.0815,92.9556,267.159,0.00010666,1.41e-05,0.0,0 STARLINK-4565,1 53562U 22101AM  24099.60176734  .00001410  00000-0  10666-3 0  9993,2 53562  53.2172 317.0815 0001342  92.9556 267.1590 15.08843184 91411,6917.871,95.437,540.664,538.807,0.0
53562.0,STARLINK-4565,PAYLOAD,2024-04-08 23:58:51,15.08847294,0.000138,53.2162,315.2979,90.1925,269.9225,0.00015777,2.224e-05,0.0,0 STARLINK-4565,1 53562U 22101AM  24099.99920281  .00002224  00000-0  15777-3 0  9991,2 53562  53.2162 315.2979 0001380  90.1925 269.9225 15.08847294 91470,6917.858,95.437,540.678,538.768,0.0
53562.0,STARLINK-4565,PAYLOAD,2024-04-09 07:55:47,15.08835296,0.0001699,53.2166,313.8109,89.2494,270.8693,5.0377e-05,5.14e-06,0.0,0 STARLINK-4565,1 53562U 22101AM  24100.33041452  .00000514  00000-0  50377-4 0  9992,2 53562  53.2166 313.8109 0001699  89.2494 270.8693 15.08835296 90867,6917.895,95.438,540.935,538.584,0.0
53562.0,STARLINK-4565,PAYLOAD,2024-04-10 14:08:07,15.08844239,0.0001771,53.2098,308.1602,89.3295,270.79,-4.1612e-05,-9.5e-06,0.0,0 STARLINK-4565,1 53562U 22101AM  24101.58897190 -.00000950  00000-0 -41612-4 0  9996,2 53562  53.2098 308.1602 0001771  89.3295 270.7900 15.08844239 91719,6917.867,95.437,540.958,538.507,0.0
53562.0,STARLINK-4565,PAYLOAD,2024-04-10 20:29:39,15.08845575,0.0001466,53.2182,306.9723,88.4364,271.6796,2.2688e-05,7.3e-07,0.0,0 STARLINK-4565,1 53562U 22101AM  24101.85392982  .00000073  00000-0  22688-4 0  9991,2 53562  53.2182 306.9723 0001466  88.4364 271.6796 15.08845575 91099,6917.863,95.437,540.743,538.714,0.0
53562.0,STARLINK-4565,PAYLOAD,2024-04-11 06:01:58,15.08844608,0.00014,53.2176,305.1876,87.2247,272.8905,2.9075e-05,1.75e-06,0.0,0 STARLINK-4565,1 53562U 22101AM  24102.25136956  .00000175  00000-0  29075-4 0  9993,2 53562  53.2176 305.1876 0001400  87.2247 272.8905 15.08844608 91818,6917.866,95.437,540.7,538.763,0.0
53562.0,STARLINK-4565,PAYLOAD,2024-04-11 20:20:26,15.08847925,0.000126,53.2175,302.5113,82.9453,277.1683,0.00014483,2.018e-05,0.0,0 STARLINK-4565,1 53562U 22101AM  24102.84752735  .00002018  00000-0  14483-3 0  9991,2 53562  53.2175 302.5113 0001260  82.9453 277.1683 15.08847925 91903,6917.856,95.437,540.593,538.85,0.0
53562.0,STARLINK-4565,PAYLOAD,2024-04-11 23:31:12,15.08850221,0.0001299,53.2167,301.9161,81.0611,279.0528,0.00016469,2.335e-05,0.0,0 STARLINK-4565,1 53562U 22101AM  24102.98000640  .00002335  00000-0  16469-3 0  9995,2 53562  53.2167 301.9161 0001299  81.0611 279.0528 15.08850221 91269,6917.849,95.437,540.613,538.816,0.0
53562.0,STARLINK-4565,PAYLOAD,2024-04-12 23:21:59,15.0884055,0.0001371,53.2171,297.459,96.2601,263.8547,-3.3769e-07,-2.93e-06,0.0,0 STARLINK-4565,1 53562U 22101AM  24103.97360925 -.00000293  00000-0 -33769-6 0  9998,2 53562  53.2171 297.4590 0001371  96.2601 263.8547 15.08840550 91410,6917.879,95.438,540.692,538.795,0.0
53562.0,STARLINK-4565,PAYLOAD,2024-04-13 12:05:05,15.08833739,0.0001413,53.2173,295.0776,87.6058,272.5096,3.2503e-05,2.29e-06,0.0,0 STARLINK-4565,1 53562U 22101AM  24104.50353936  .00000229  00000-0  32503-4 0  9992,2 53562  53.2173 295.0776 0001413  87.6058 272.5096 15.08833739 91494,6917.9,95.438,540.742,538.787,0.0
53562.0,STARLINK-4565,PAYLOAD,2024-04-13 20:02:01,15.08839371,0.000126,53.2173,293.59,81.1595,278.954,-2.8934e-05,-7.48e-06,0.0,0 STARLINK-4565,1 53562U 22101AM  24104.83473703 -.00000748  00000-0 -28934-4 0  9994,2 53562  53.2173 293.5900 0001260  81.1595 278.9540 15.08839371 92203,6917.882,95.438,540.619,538.876,0.0
53562.0,STARLINK-4565,PAYLOAD,2024-04-14 19:52:47,15.08843723,0.0001603,53.2182,289.13,63.9477,296.168,0.00019857,2.874e-05,0.0,0 STARLINK-4565,1 53562U 22101AM  24105.82833159  .00002874  00000-0  19857-3 0  9992,2 53562  53.2182 289.1300 0001603  63.9477 296.1680 15.08843723 91691,6917.869,95.437,540.843,538.625,0.0
53562.0,STARLINK-4565,PAYLOAD,2024-04-15 11:46:39,15.0883994,0.0002355,53.216,286.1634,58.943,301.1793,0.00016777,2.383e-05,0.0,0 STARLINK-4565,1 53562U 22101AM  24106.49073899  .00002383  00000-0  16777-3 0  9996,2 53562  53.2160 286.1634 0002355  58.9430 301.1793 15.08839940 91791,6917.881,95.438,541.375,538.116,0.0
53562.0,STARLINK-4565,PAYLOAD,2024-04-16 05:15:54,15.0884229,0.0001138,53.2161,282.8842,98.157,261.9551,8.7371e-05,1.103e-05,0.0,0 STARLINK-4565,1 53562U 22101AM  24107.21937661  .00001103  00000-0  87371-4 0  9991,2 53562  53.2161 282.8842 0001138  98.1570 261.9551 15.08842290 92568,6917.873,95.437,540.526,538.951,0.0
53562.0,STARLINK-4565,PAYLOAD,2024-04-16 17:58:58,15.08851402,9.3e-05,53.2163,280.5054,80.069,280.0407,0.0001019,1.335e-05,0.0,0 STARLINK-4565,1 53562U 22101AM  24107.74929059  .00001335  00000-0  10190-3 0  9992,2 53562  53.2163 280.5054 0000930  80.0690 280.0407 15.08851402 91984,6917.846,95.437,540.354,539.067,0.0
53562.0,STARLINK-4565,PAYLOAD,2024-04-17 11:28:13,15.0884345,0.0001204,53.214,277.2334,78.1585,281.9542,0.00016836,2.393e-05,0.0,0 STARLINK-4565,1 53562U 22101AM  24108.47793496  .00002393  00000-0  16836-3 0  9995,2 53562  53.2140 277.2334 0001204  78.1585 281.9542 15.08843450 92096,6917.87,95.437,540.568,538.902,0.0
53562.0,STARLINK-4565,PAYLOAD,2024-04-17 14:38:59,15.08841462,0.0001106,53.2151,276.6381,82.2338,277.878,0.0001566,2.205e-05,0.0,0 STARLINK-4565,1 53562U 22101AM  24108.61041555  .00002205  00000-0  15660-3 0  9999,2 53562  53.2151 276.6381 0001106  82.2338 277.8780 15.08841462 92770,6917.876,95.437,540.506,538.976,0.0
53562.0,STARLINK-4565,PAYLOAD,2024-04-17 16:14:23,15.08842829,0.0001147,53.2158,276.3415,83.5546,276.5577,0.00017419,2.486e-05,0.0,0 STARLINK-4565,1 53562U 22101AM  24108.67665525  .00002486  00000-0  17419-3 0  9999,2 53562  53.2158 276.3415 0001147  83.5546 276.5577 15.08842829 92781,6917.872,95.437,540.53,538.943,0.0
53562.0,STARLINK-4565,PAYLOAD,2024-04-18 11:19:00,15.08838704,0.0001545,53.2165,272.7735,75.5378,284.5786,-6.05e-05,-1.251e-05,0.0,0 STARLINK-4565,1 53562U 22101AM  24109.47153731 -.00001251  00000-0 -60500-4 0  9990,2 53562  53.2165 272.7735 0001545  75.5378 284.5786 15.08838704 92249,6917.884,95.438,540.818,538.681,0.0
53562.0,STARLINK-4565,PAYLOAD,2024-04-18 14:29:47,15.08838708,0.0001256,53.2174,272.1795,85.2033,274.9102,1.3565e-06,-2.66e-06,0.0,0 STARLINK-4565,1 53562U 22101AM  24109.60401747 -.00000266  00000-0  13565-5 0  9992,2 53562  53.2174 272.1795 0001256  85.2033 274.9102 15.08838708 92928,6917.884,95.438,540.618,538.88,0.0
53562.0,STARLINK-4565,PAYLOAD,2024-04-18 16:05:10,15.08839285,0.0001372,53.2165,271.8796,90.8002,269.3148,-9.7847e-06,-4.44e-06,0.0,0 STARLINK-4565,1 53562U 22101AM  24109.67025687 -.00000444  00000-0 -97847-5 0  9998,2 53562  53.2165 271.8796 0001372  90.8002 269.3148 15.08839285 92932,6917.883,95.438,540.697,538.798,0.0
53562.0,STARLINK-4565,PAYLOAD,2024-04-19 14:20:34,15.08835341,0.0001378,53.2175,267.7218,78.5281,281.5865,9.7596e-05,1.265e-05,0.0,0 STARLINK-4565,1 53562U 22101AM  24110.59762263  .00001265  00000-0  97596-4 0  9999,2 53562  53.2175 267.7218 0001378  78.5281 281.5865 15.08835341 93071,6917.895,95.438,540.713,538.806,0.0
